OBJECT_NAME,OBJECT_ID,EPOCH,MEAN_MOTION,ECCENTRICITY,INCLINATION,RA_OF_ASC_NODE,ARG_OF_PERICENTER,MEAN_ANOMALY,EPHEMERIS_TYPE,CLASSIFICATION_TYPE,NORAD_CAT_ID,ELEMENT_SET_NO,REV_AT_EPOCH,BSTAR,MEAN_MOTION_DOT,MEAN_MOTION_DDOT
STARLINK-5219,2022-136AV,2024-02-07T13:44:27.796416,15.08840559,.0001263,53.2175,150.7395,86.9451,273.1685,0,U,54094,999,7255,-.16679E-4,-.553E-5,0
STARLINK-5188,2022-136AX,2024-02-07T13:39:09.073728,15.08843753,.000161,53.2178,150.7160,95.9150,264.2026,0,U,54096,999,7208,.59988E-4,.667E-5,0
STARLINK-5185,2022-136BB,2024-02-07T15:03:55.603296,15.08843013,.000131,53.2164,150.3738,91.6261,268.4881,0,U,54100,999,7209,.79476E-4,.977E-5,0
STARLINK-5203,2022-136BF,2024-02-07T21:39:27.482688,15.08839807,.0001329,53.2173,114.3032,89.4700,270.6445,0,U,54104,999,7262,.78938E-4,.969E-5,0
ONEWEB-0490,2022-138A,2024-02-07T22:00:49.294080,13.19724329,.0001992,87.9177,116.2250,99.6079,260.5279,0,U,54113,999,6336,.21991E-3,.101E-5,0
ONEWEB-0495,2022-138C,2024-02-07T18:27:01.636416,13.19725948,.0002324,87.9186,116.2618,100.1306,260.0089,0,U,54115,999,6333,.14388E-3,.71E-6,0
ONEWEB-0497,2022-138D,2024-02-07T16:56:02.931936,13.19726436,.0002,87.9179,116.2681,99.5499,260.5860,0,U,54116,999,6331,.13299E-3,.66E-6,0
ONEWEB-0499,2022-138E,2024-02-07T21:58:33.188160,13.19724905,.0002267,87.9182,116.2221,115.8330,244.3037,0,U,54117,999,6335,.38053E-3,.165E-5,0
ONEWEB-0500,2022-138F,2024-02-07T22:03:06.472224,13.19727239,.0001899,87.9181,116.2214,98.4967,261.6381,0,U,54118,999,6336,.44382E-3,.191E-5,0
ONEWEB-0502,2022-138H,2024-02-07T16:58:19.197696,13.19726469,.0002254,87.9176,116.2545,102.8169,257.3215,0,U,54120,999,6333,.15149E-3,.74E-6,0
ONEWEB-0503,2022-138J,2024-02-07T18:31:36.836832,13.19727046,.000184,87.9178,116.2491,116.8024,243.3297,0,U,54121,999,6333,.1201E-3,.61E-6,0
ONEWEB-0504,2022-138K,2024-02-07T21:51:44.228448,13.19726985,.0002288,87.9177,116.2245,108.5698,251.5683,0,U,54122,999,6336,.38117E-3,.166E-5,0
ONEWEB-0505,2022-138L,2024-02-07T21:47:11.486976,13.19726184,.0002689,87.9177,116.2220,101.8343,258.3092,0,U,54123,999,6334,.17184E-3,.82E-6,0
ONEWEB-0506,2022-138M,2024-02-07T17:32:26.102688,13.19723320,.0002199,87.9179,116.2539,101.6511,258.4869,0,U,54124,999,6331,.53616E-4,.34E-6,0
ONEWEB-0508,2022-138P,2024-02-07T21:35:48.875136,13.19726139,.0002478,87.9183,116.2277,98.8909,261.2504,0,U,54126,999,6336,.17072E-3,.81E-6,0
ONEWEB-0509,2022-138Q,2024-02-07T17:21:03.909888,13.19723568,.000209,87.9178,116.2585,103.4212,256.7153,0,U,54127,999,6331,.84332E-4,.47E-6,0
ONEWEB-0510,2022-138R,2024-02-07T20:05:48.284160,13.20771830,.0002054,87.9149,85.6765,85.2614,274.8753,0,U,54128,999,6571,-.30312E-3,-.11E-5,0
ONEWEB-0511,2022-138S,2024-02-07T17:16:30.656064,13.19723734,.0002048,87.9179,116.2608,112.1303,248.0047,0,U,54129,999,6334,.22064E-3,.101E-5,0
ONEWEB-0512,2022-138T,2024-02-07T17:05:10.001184,13.19726257,.0002471,87.9189,116.2682,102.6953,257.4456,0,U,54130,999,6331,-.34969E-4,-.1E-7,0
