STARLINK-5219           
1 54094U 22136AV  24038.57254394 -.00000553  00000+0 -16679-4 0  9999
2 54094  53.2175 150.7395 0001263  86.9451 273.1685 15.08840559 72558
STARLINK-5188           
1 54096U 22136AX  24038.56885502  .00000667  00000+0  59988-4 0  9995
2 54096  53.2178 150.7160 0001610  95.9150 264.2026 15.08843753 72082
STARLINK-5185           
1 54100U 22136BB  24038.62772689  .00000977  00000+0  79476-4 0  9997
2 54100  53.2164 150.3738 0001310  91.6261 268.4881 15.08843013 72098
STARLINK-5203           
1 54104U 22136BF  24038.90240142  .00000969  00000+0  78938-4 0  9999
2 54104  53.2173 114.3032 0001329  89.4700 270.6445 15.08839807 73090
ONEWEB-0490             
1 54113U 22138A   24038.91723720  .00000101  00000+0  21991-3 0  9994
2 54113  87.9177 116.2250 0001992  99.6079 260.5279 13.19724329 63363
ONEWEB-0495             
1 54115U 22138C   24038.76876894  .00000071  00000+0  14388-3 0  9998
2 54115  87.9186 116.2618 0002324 100.1306 260.0089 13.19725948 63333
ONEWEB-0497             
1 54116U 22138D   24038.70558949  .00000066  00000+0  13299-3 0  9995
2 54116  87.9179 116.2681 0002000  99.5499 260.5860 13.19726436 63314
ONEWEB-0499             
1 54117U 22138E   24038.91566190  .00000165  00000+0  38053-3 0  9991
2 54117  87.9182 116.2221 0002267 115.8330 244.3037 13.19724905 63359
ONEWEB-0500             
1 54118U 22138F   24038.91882491  .00000191  00000+0  44382-3 0  9998
2 54118  87.9181 116.2214 0001899  98.4967 261.6381 13.19727239 63361
ONEWEB-0502             
1 54120U 22138H   24038.70716664  .00000074  00000+0  15149-3 0  9995
2 54120  87.9176 116.2545 0002254 102.8169 257.3215 13.19726469 63334
ONEWEB-0503             
1 54121U 22138J   24038.77195413  .00000061  00000+0  12010-3 0  9996
2 54121  87.9178 116.2491 0001840 116.8024 243.3297 13.19727046 63339
ONEWEB-0504             
1 54122U 22138K   24038.91092857  .00000166  00000+0  38117-3 0  9993
2 54122  87.9177 116.2245 0002288 108.5698 251.5683 13.19726985 63362
ONEWEB-0505             
1 54123U 22138L   24038.90777184  .00000082  00000+0  17184-3 0  9994
2 54123  87.9177 116.2220 0002689 101.8343 258.3092 13.19726184 63342
ONEWEB-0506             
1 54124U 22138M   24038.73085767  .00000034  00000+0  53616-4 0  9993
2 54124  87.9179 116.2539 0002199 101.6511 258.4869 13.19723320 63318
ONEWEB-0508             
1 54126U 22138P   24038.89987124  .00000081  00000+0  17072-3 0  9997
2 54126  87.9183 116.2277 0002478  98.8909 261.2504 13.19726139 64233
ONEWEB-0509             
1 54127U 22138Q   24038.72296192  .00000047  00000+0  84332-4 0  9994
2 54127  87.9178 116.2585 0002090 103.4212 256.7153 13.19723568 63310
ONEWEB-0510             
1 54128U 22138R   24038.83736440 -.00000110  00000+0 -30312-3 0  9993
2 54128  87.9149  85.6765 0002054  85.2614 274.8753 13.20771830 65711
ONEWEB-0511             
1 54129U 22138S   24038.71979926  .00000101  00000+0  22064-3 0  9992
2 54129  87.9179 116.2608 0002048 112.1303 248.0047 13.19723734 63344
ONEWEB-0512             
1 54130U 22138T   24038.71192131 -.00000001  00000+0 -34969-4 0  9998
2 54130  87.9189 116.2682 0002471 102.6953 257.4456 13.19726257 63312
